STARLINK-5431           
1 54792U 22175AL  25305.57824705  .00004552  00000+0  30365-3 0  9992
2 54792  53.2164 258.8754 0001278 101.5182 258.5954 15.08872046160584
STARLINK-5433           
1 54793U 22175AM  25305.53832558 -.00003413  00000+0 -19650-3 0  9995
2 54793  53.2155 234.4270 0001269 111.4754 248.6374 15.08830255160923
STARLINK-5436           
1 54795U 22175AP  25305.52633233 -.00000142  00000+0  91412-5 0  9998
2 54795  53.2176 244.2943 0001454  95.9164 264.1994 15.08836485160787
STARLINK-5415           
1 54796U 22175AQ  25305.12152556 -.00000583  00000+0 -18542-4 0  9991
2 54796  53.2182 246.0372 0001463  87.3923 272.7236 15.08829275160726
STARLINK-5435           
1 54797U 22175AR  25305.59766700 -.00001258  00000+0 -60920-4 0  9992
2 54797  53.2176 258.9893 0001753  88.9131 271.2062 15.08840412160581
STARLINK-5420           
1 54798U 22175AS  25305.51620756 -.00000389  00000+0 -63233-5 0  9990
2 54798  53.2172 234.2802 0001407  83.7282 276.3870 15.08836063160929
STARLINK-5421           
1 54799U 22175AT  25305.53465226 -.00005362  00000+0 -31935-3 0  9990
2 54799  53.2170 234.3965 0001717  89.3906 270.7283 15.08805225160920
STARLINK-5428           
1 54800U 22175AU  25305.12658291 -.00000860  00000+0 -35968-4 0  9993
2 54800  53.2167 251.0333 0001224  86.0833 274.0299 15.08833907160652
STARLINK-5429           
1 54801U 22175AV  25305.17347950  .00000261  00000+0  34491-4 0  9999
2 54801  53.2177 260.6117 0001468  94.9705 265.1455 15.08834375160527
STARLINK-5426           
1 54802U 22175AW  25305.02948634 -.00006994  00000+0 -42167-3 0  9999
2 54802  53.2169 206.1557 0001419  98.6794 261.4359 15.08849287161270
STARLINK-5430           
1 54803U 22175AX  25305.58196738  .00001124  00000+0  88698-4 0  9999
2 54803  53.2163 258.8842 0001382  93.9012 266.2138 15.08841562160585
STARLINK-5422           
1 54804U 22175AY  25305.56309614 -.00000181  00000+0  67071-5 0  9993
2 54804  53.2180 243.8221 0001520  83.2219 276.8946 15.08839080160794
STARLINK-5417           
1 54805U 22175AZ  25305.11783477 -.00002235  00000+0 -12243-3 0  9990
2 54805  53.2184 246.0113 0001330  97.5250 262.5894 15.08833514160729
STARLINK-5412           
1 54806U 22175BA  25305.10678261  .00000606  00000+0  56192-4 0  9994
2 54806  53.2177 245.9412 0001427  97.1328 262.9826 15.08836326160724
STARLINK-5410           
1 54807U 22175BB  25305.57414944 -.00000086  00000+0  12663-4 0  9990
2 54807  53.2168 243.8855 0001455  99.3014 260.8143 15.08834668160793
STARLINK-5413           
1 54808U 22175BC  25305.08430857 -.00000482  00000+0 -12190-4 0  9994
2 54808  53.2174 231.6222 0001513  94.4435 265.6731 15.08839294160923
