[{"OBJECT_NAME":"STARLINK-5431","OBJECT_ID":"2022-175AL","EPOCH":"2025-11-01T13:52:40.545120","MEAN_MOTION":15.08872046,"ECCENTRICITY":0.00012785,"INCLINATION":53.2164,"RA_OF_ASC_NODE":258.8754,"ARG_OF_PERICENTER":101.5182,"MEAN_ANOMALY":258.5954,"EPHEMERIS_TYPE":0,"CLASSIFICATION_TYPE":"U","NORAD_CAT_ID":54792,"ELEMENT_SET_NO":999,"REV_AT_EPOCH":16058,"BSTAR":0.00030365339,"MEAN_MOTION_DOT":4.552e-5,"MEAN_MOTION_DDOT":0},{"OBJECT_NAME":"STARLINK-5433","OBJECT_ID":"2022-175AM","EPOCH":"2025-11-01T12:55:11.330112","MEAN_MOTION":15.08830255,"ECCENTRICITY":0.00012693,"INCLINATION":53.2155,"RA_OF_ASC_NODE":234.427,"ARG_OF_PERICENTER":111.4754,"MEAN_ANOMALY":248.6374,"EPHEMERIS_TYPE":0,"CLASSIFICATION_TYPE":"U","NORAD_CAT_ID":54793,"ELEMENT_SET_NO":999,"REV_AT_EPOCH":16092,"BSTAR":-0.00019649984,"MEAN_MOTION_DOT":-3.413e-5,"MEAN_MOTION_DDOT":0},{"OBJECT_NAME":"STARLINK-5436","OBJECT_ID":"2022-175AP","EPOCH":"2025-11-01T12:37:55.113312","MEAN_MOTION":15.08836485,"ECCENTRICITY":0.00014541,"INCLINATION":53.2176,"RA_OF_ASC_NODE":244.2943,"ARG_OF_PERICENTER":95.9164,"MEAN_ANOMALY":264.1994,"EPHEMERIS_TYPE":0,"CLASSIFICATION_TYPE":"U","NORAD_CAT_ID":54795,"ELEMENT_SET_NO":999,"REV_AT_EPOCH":16078,"BSTAR":9.141159e-6,"MEAN_MOTION_DOT":-1.42e-6,"MEAN_MOTION_DDOT":0},{"OBJECT_NAME":"STARLINK-5415","OBJECT_ID":"2022-175AQ","EPOCH":"2025-11-01T02:54:59.808384","MEAN_MOTION":15.08829275,"ECCENTRICITY":0.00014639,"INCLINATION":53.2182,"RA_OF_ASC_NODE":246.0372,"ARG_OF_PERICENTER":87.3923,"MEAN_ANOMALY":272.7236,"EPHEMERIS_TYPE":0,"CLASSIFICATION_TYPE":"U","NORAD_CAT_ID":54796,"ELEMENT_SET_NO":999,"REV_AT_EPOCH":16072,"BSTAR":-1.8541751e-5,"MEAN_MOTION_DOT":-5.83e-6,"MEAN_MOTION_DDOT":0},{"OBJECT_NAME":"STARLINK-5435","OBJECT_ID":"2022-175AR","EPOCH":"2025-11-01T14:20:38.428800","MEAN_MOTION":15.08840412,"ECCENTRICITY":0.00017532,"INCLINATION":53.2176,"RA_OF_ASC_NODE":258.9893,"ARG_OF_PERICENTER":88.9131,"MEAN_ANOMALY":271.2062,"EPHEMERIS_TYPE":0,"CLASSIFICATION_TYPE":"U","NORAD_CAT_ID":54797,"ELEMENT_SET_NO":999,"REV_AT_EPOCH":16058,"BSTAR":-6.0919945e-5,"MEAN_MOTION_DOT":-1.258e-5,"MEAN_MOTION_DDOT":0},{"OBJECT_NAME":"STARLINK-5420","OBJECT_ID":"2022-175AS","EPOCH":"2025-11-01T12:23:20.333184","MEAN_MOTION":15.08836063,"ECCENTRICITY":0.00014073,"INCLINATION":53.2172,"RA_OF_ASC_NODE":234.2802,"ARG_OF_PERICENTER":83.7282,"MEAN_ANOMALY":276.387,"EPHEMERIS_TYPE":0,"CLASSIFICATION_TYPE":"U","NORAD_CAT_ID":54798,"ELEMENT_SET_NO":999,"REV_AT_EPOCH":16092,"BSTAR":-6.323295e-6,"MEAN_MOTION_DOT":-3.89e-6,"MEAN_MOTION_DDOT":0},{"OBJECT_NAME":"STARLINK-5421","OBJECT_ID":"2022-175AT","EPOCH":"2025-11-01T12:49:53.955264","MEAN_MOTION":15.08805225,"ECCENTRICITY":0.00017171,"INCLINATION":53.217,"RA_OF_ASC_NODE":234.3965,"ARG_OF_PERICENTER":89.3906,"MEAN_ANOMALY":270.7283,"EPHEMERIS_TYPE":0,"CLASSIFICATION_TYPE":"U","NORAD_CAT_ID":54799,"ELEMENT_SET_NO":999,"REV_AT_EPOCH":16092,"BSTAR":-0.00031935388,"MEAN_MOTION_DOT":-5.362e-5,"MEAN_MOTION_DDOT":0},{"OBJECT_NAME":"STARLINK-5428","OBJECT_ID":"2022-175AU","EPOCH":"2025-11-01T03:02:16.763424","MEAN_MOTION":15.08833907,"ECCENTRICITY":0.00012248,"INCLINATION":53.2167,"RA_OF_ASC_NODE":251.0333,"ARG_OF_PERICENTER":86.0833,"MEAN_ANOMALY":274.0299,"EPHEMERIS_TYPE":0,"CLASSIFICATION_TYPE":"U","NORAD_CAT_ID":54800,"ELEMENT_SET_NO":999,"REV_AT_EPOCH":16065,"BSTAR":-3.5967684e-5,"MEAN_MOTION_DOT":-8.6e-6,"MEAN_MOTION_DDOT":0},{"OBJECT_NAME":"STARLINK-5429","OBJECT_ID":"2022-175AV","EPOCH":"2025-11-01T04:09:48.628800","MEAN_MOTION":15.08834375,"ECCENTRICITY":0.00014687,"INCLINATION":53.2177,"RA_OF_ASC_NODE":260.6117,"ARG_OF_PERICENTER":94.9705,"MEAN_ANOMALY":265.1455,"EPHEMERIS_TYPE":0,"CLASSIFICATION_TYPE":"U","NORAD_CAT_ID":54801,"ELEMENT_SET_NO":999,"REV_AT_EPOCH":16052,"BSTAR":3.449057e-5,"MEAN_MOTION_DOT":2.61e-6,"MEAN_MOTION_DDOT":0},{"OBJECT_NAME":"STARLINK-5426","OBJECT_ID":"2022-175AW","EPOCH":"2025-11-01T00:42:27.619776","MEAN_MOTION":15.08849287,"ECCENTRICITY":0.00014194,"INCLINATION":53.2169,"RA_OF_ASC_NODE":206.1557,"ARG_OF_PERICENTER":98.6794,"MEAN_ANOMALY":261.4359,"EPHEMERIS_TYPE":0,"CLASSIFICATION_TYPE":"U","NORAD_CAT_ID":54802,"ELEMENT_SET_NO":999,"REV_AT_EPOCH":16127,"BSTAR":-0.00042167263,"MEAN_MOTION_DOT":-6.994e-5,"MEAN_MOTION_DDOT":0},{"OBJECT_NAME":"STARLINK-5430","OBJECT_ID":"2022-175AX","EPOCH":"2025-11-01T13:58:01.981632","MEAN_MOTION":15.08841562,"ECCENTRICITY":0.0001382,"INCLINATION":53.2163,"RA_OF_ASC_NODE":258.8842,"ARG_OF_PERICENTER":93.9012,"MEAN_ANOMALY":266.2138,"EPHEMERIS_TYPE":0,"CLASSIFICATION_TYPE":"U","NORAD_CAT_ID":54803,"ELEMENT_SET_NO":999,"REV_AT_EPOCH":16058,"BSTAR":8.8697623e-5,"MEAN_MOTION_DOT":1.124e-5,"MEAN_MOTION_DDOT":0},{"OBJECT_NAME":"STARLINK-5422","OBJECT_ID":"2022-175AY","EPOCH":"2025-11-01T13:30:51.506496","MEAN_MOTION":15.0883908,"ECCENTRICITY":0.00015204,"INCLINATION":53.218,"RA_OF_ASC_NODE":243.8221,"ARG_OF_PERICENTER":83.2219,"MEAN_ANOMALY":276.8946,"EPHEMERIS_TYPE":0,"CLASSIFICATION_TYPE":"U","NORAD_CAT_ID":54804,"ELEMENT_SET_NO":999,"REV_AT_EPOCH":16079,"BSTAR":6.707101e-6,"MEAN_MOTION_DOT":-1.81e-6,"MEAN_MOTION_DDOT":0},{"OBJECT_NAME":"STARLINK-5417","OBJECT_ID":"2022-175AZ","EPOCH":"2025-11-01T02:49:40.924128","MEAN_MOTION":15.08833514,"ECCENTRICITY":0.00013307,"INCLINATION":53.2184,"RA_OF_ASC_NODE":246.0113,"ARG_OF_PERICENTER":97.525,"MEAN_ANOMALY":262.5894,"EPHEMERIS_TYPE":0,"CLASSIFICATION_TYPE":"U","NORAD_CAT_ID":54805,"ELEMENT_SET_NO":999,"REV_AT_EPOCH":16072,"BSTAR":-0.00012242757,"MEAN_MOTION_DOT":-2.235e-5,"MEAN_MOTION_DDOT":0},{"OBJECT_NAME":"STARLINK-5412","OBJECT_ID":"2022-175BA","EPOCH":"2025-11-01T02:33:46.017504","MEAN_MOTION":15.08836326,"ECCENTRICITY":0.00014278,"INCLINATION":53.2177,"RA_OF_ASC_NODE":245.9412,"ARG_OF_PERICENTER":97.1328,"MEAN_ANOMALY":262.9826,"EPHEMERIS_TYPE":0,"CLASSIFICATION_TYPE":"U","NORAD_CAT_ID":54806,"ELEMENT_SET_NO":999,"REV_AT_EPOCH":16072,"BSTAR":5.6192136e-5,"MEAN_MOTION_DOT":6.06e-6,"MEAN_MOTION_DDOT":0},{"OBJECT_NAME":"STARLINK-5410","OBJECT_ID":"2022-175BB","EPOCH":"2025-11-01T13:46:46.511616","MEAN_MOTION":15.08834668,"ECCENTRICITY":0.00014554,"INCLINATION":53.2168,"RA_OF_ASC_NODE":243.8855,"ARG_OF_PERICENTER":99.3014,"MEAN_ANOMALY":260.8143,"EPHEMERIS_TYPE":0,"CLASSIFICATION_TYPE":"U","NORAD_CAT_ID":54807,"ELEMENT_SET_NO":999,"REV_AT_EPOCH":16079,"BSTAR":1.2662986e-5,"MEAN_MOTION_DOT":-8.6e-7,"MEAN_MOTION_DDOT":0},{"OBJECT_NAME":"STARLINK-5413","OBJECT_ID":"2022-175BC","EPOCH":"2025-11-01T02:01:24.260448","MEAN_MOTION":15.08839294,"ECCENTRICITY":0.00015139,"INCLINATION":53.2174,"RA_OF_ASC_NODE":231.6222,"ARG_OF_PERICENTER":94.4435,"MEAN_ANOMALY":265.6731,"EPHEMERIS_TYPE":0,"CLASSIFICATION_TYPE":"U","NORAD_CAT_ID":54808,"ELEMENT_SET_NO":999,"REV_AT_EPOCH":16092,"BSTAR":-1.2189717e-5,"MEAN_MOTION_DOT":-4.82e-6,"MEAN_MOTION_DDOT":0}]
